[{"OBJECT_NAME":"STARLINK-1107","OBJECT_ID":"2020-001BL","EPOCH":"2025-10-21T22:00:00.999072","MEAN_MOTION":15.6472239,"ECCENTRICITY":0.000561,"INCLINATION":53.0077,"RA_OF_ASC_NODE":128.2522,"ARG_OF_PERICENTER":192.9216,"MEAN_ANOMALY":154.9173,"EPHEMERIS_TYPE":0,"CLASSIFICATION_TYPE":"U","NORAD_CAT_ID":44972,"ELEMENT_SET_NO":999,"REV_AT_EPOCH":588,"BSTAR":0.001883,"MEAN_MOTION_DOT":0.0019028,"MEAN_MOTION_DDOT":0},{"OBJECT_NAME":"STARLINK-1132","OBJECT_ID":"2020-006A","EPOCH":"2025-10-20T23:50:04.673760","MEAN_MOTION":15.06396928,"ECCENTRICITY":9.653e-5,"INCLINATION":53.0535,"RA_OF_ASC_NODE":173.7419,"ARG_OF_PERICENTER":91.4595,"MEAN_ANOMALY":268.6505,"EPHEMERIS_TYPE":0,"CLASSIFICATION_TYPE":"U","NORAD_CAT_ID":45044,"ELEMENT_SET_NO":999,"REV_AT_EPOCH":31568,"BSTAR":5.866627e-5,"MEAN_MOTION_DOT":5.93e-6,"MEAN_MOTION_DDOT":0},{"OBJECT_NAME":"STARLINK-1131","OBJECT_ID":"2020-006D","EPOCH":"2025-10-21T02:26:45.658176","MEAN_MOTION":15.06379623,"ECCENTRICITY":0.00018422,"INCLINATION":53.0543,"RA_OF_ASC_NODE":193.7926,"ARG_OF_PERICENTER":86.3412,"MEAN_ANOMALY":273.7787,"EPHEMERIS_TYPE":0,"CLASSIFICATION_TYPE":"U","NORAD_CAT_ID":45047,"ELEMENT_SET_NO":999,"REV_AT_EPOCH":31541,"BSTAR":0.00053075323,"MEAN_MOTION_DOT":7.628e-5,"MEAN_MOTION_DDOT":0},{"OBJECT_NAME":"STARLINK-1134","OBJECT_ID":"2020-006E","EPOCH":"2025-10-21T19:06:02.661696","MEAN_MOTION":15.2653884,"ECCENTRICITY":0.0011717,"INCLINATION":53.0405,"RA_OF_ASC_NODE":169.8873,"ARG_OF_PERICENTER":107.31,"MEAN_ANOMALY":252.918,"EPHEMERIS_TYPE":0,"CLASSIFICATION_TYPE":"U","NORAD_CAT_ID":45048,"ELEMENT_SET_NO":999,"REV_AT_EPOCH":31581,"BSTAR":0.0014251,"MEAN_MOTION_DOT":0.00037649,"MEAN_MOTION_DDOT":0},{"OBJECT_NAME":"STARLINK-1156","OBJECT_ID":"2020-006L","EPOCH":"2025-10-21T17:39:35.309376","MEAN_MOTION":15.06420801,"ECCENTRICITY":0.0001881,"INCLINATION":53.0532,"RA_OF_ASC_NODE":190.4084,"ARG_OF_PERICENTER":80.9375,"MEAN_ANOMALY":279.1827,"EPHEMERIS_TYPE":0,"CLASSIFICATION_TYPE":"U","NORAD_CAT_ID":45054,"ELEMENT_SET_NO":999,"REV_AT_EPOCH":31551,"BSTAR":0.0025601,"MEAN_MOTION_DOT":0.00038079,"MEAN_MOTION_DDOT":0},{"OBJECT_NAME":"STARLINK-1159","OBJECT_ID":"2020-006P","EPOCH":"2025-10-21T22:00:00.999072","MEAN_MOTION":15.10421529,"ECCENTRICITY":0.0001845,"INCLINATION":53.0538,"RA_OF_ASC_NODE":189.5742,"ARG_OF_PERICENTER":92.7872,"MEAN_ANOMALY":100.0931,"EPHEMERIS_TYPE":0,"CLASSIFICATION_TYPE":"U","NORAD_CAT_ID":45057,"ELEMENT_SET_NO":999,"REV_AT_EPOCH":544,"BSTAR":0.0014524,"MEAN_MOTION_DOT":0.00023934,"MEAN_MOTION_DDOT":0},{"OBJECT_NAME":"STARLINK-1166","OBJECT_ID":"2020-006S","EPOCH":"2025-10-21T16:41:13.330752","MEAN_MOTION":15.0639316,"ECCENTRICITY":0.0001323,"INCLINATION":53.0531,"RA_OF_ASC_NODE":190.5908,"ARG_OF_PERICENTER":92.7995,"MEAN_ANOMALY":267.3145,"EPHEMERIS_TYPE":0,"CLASSIFICATION_TYPE":"U","NORAD_CAT_ID":45060,"ELEMENT_SET_NO":999,"REV_AT_EPOCH":31551,"BSTAR":0.0008738,"MEAN_MOTION_DOT":0.00012755,"MEAN_MOTION_DDOT":0},{"OBJECT_NAME":"STARLINK-1169","OBJECT_ID":"2020-006T","EPOCH":"2025-10-21T10:29:40.006176","MEAN_MOTION":15.06390005,"ECCENTRICITY":0.00012237,"INCLINATION":53.0536,"RA_OF_ASC_NODE":191.7504,"ARG_OF_PERICENTER":105.8804,"MEAN_ANOMALY":254.232,"EPHEMERIS_TYPE":0,"CLASSIFICATION_TYPE":"U","NORAD_CAT_ID":45061,"ELEMENT_SET_NO":999,"REV_AT_EPOCH":31547,"BSTAR":0.00096600849,"MEAN_MOTION_DOT":0.00014132,"MEAN_MOTION_DDOT":0},{"OBJECT_NAME":"STARLINK-1171","OBJECT_ID":"2020-006U","EPOCH":"2025-10-21T22:00:00.999072","MEAN_MOTION":15.26809965,"ECCENTRICITY":0.000109,"INCLINATION":53.0533,"RA_OF_ASC_NODE":188.7953,"ARG_OF_PERICENTER":102.8594,"MEAN_ANOMALY":110.6307,"EPHEMERIS_TYPE":0,"CLASSIFICATION_TYPE":"U","NORAD_CAT_ID":45062,"ELEMENT_SET_NO":999,"REV_AT_EPOCH":544,"BSTAR":0.058915,"MEAN_MOTION_DOT":0.01717943,"MEAN_MOTION_DDOT":0},{"OBJECT_NAME":"STARLINK-1133","OBJECT_ID":"2020-006W","EPOCH":"2025-10-21T20:00:14.900256","MEAN_MOTION":15.06397971,"ECCENTRICITY":0.0001405,"INCLINATION":53.0536,"RA_OF_ASC_NODE":169.9668,"ARG_OF_PERICENTER":102.3816,"MEAN_ANOMALY":257.733,"EPHEMERIS_TYPE":0,"CLASSIFICATION_TYPE":"U","NORAD_CAT_ID":45064,"ELEMENT_SET_NO":999,"REV_AT_EPOCH":31581,"BSTAR":0.00066851,"MEAN_MOTION_DOT":9.689e-5,"MEAN_MOTION_DDOT":0},{"OBJECT_NAME":"STARLINK-1167","OBJECT_ID":"2020-006AD","EPOCH":"2025-10-21T09:28:38.146080","MEAN_MOTION":15.06388255,"ECCENTRICITY":0.00011923,"INCLINATION":53.0534,"RA_OF_ASC_NODE":171.9387,"ARG_OF_PERICENTER":72.86,"MEAN_ANOMALY":287.2519,"EPHEMERIS_TYPE":0,"CLASSIFICATION_TYPE":"U","NORAD_CAT_ID":45071,"ELEMENT_SET_NO":999,"REV_AT_EPOCH":31574,"BSTAR":0.0006100245,"MEAN_MOTION_DOT":8.814e-5,"MEAN_MOTION_DDOT":0},{"OBJECT_NAME":"STARLINK-1168","OBJECT_ID":"2020-006AE","EPOCH":"2025-10-21T19:07:10.111584","MEAN_MOTION":15.06397461,"ECCENTRICITY":0.0001129,"INCLINATION":53.0535,"RA_OF_ASC_NODE":170.134,"ARG_OF_PERICENTER":95.0234,"MEAN_ANOMALY":265.0884,"EPHEMERIS_TYPE":0,"CLASSIFICATION_TYPE":"U","NORAD_CAT_ID":45072,"ELEMENT_SET_NO":999,"REV_AT_EPOCH":31580,"BSTAR":0.00039612,"MEAN_MOTION_DOT":5.623e-5,"MEAN_MOTION_DDOT":0},{"OBJECT_NAME":"STARLINK-1172","OBJECT_ID":"2020-006AG","EPOCH":"2025-10-21T19:23:05.457984","MEAN_MOTION":15.0639631,"ECCENTRICITY":0.0001165,"INCLINATION":53.0539,"RA_OF_ASC_NODE":170.0852,"ARG_OF_PERICENTER":97.9835,"MEAN_ANOMALY":262.1287,"EPHEMERIS_TYPE":0,"CLASSIFICATION_TYPE":"U","NORAD_CAT_ID":45074,"ELEMENT_SET_NO":999,"REV_AT_EPOCH":31580,"BSTAR":0.00050351,"MEAN_MOTION_DOT":7.225e-5,"MEAN_MOTION_DDOT":0},{"OBJECT_NAME":"STARLINK-1153","OBJECT_ID":"2020-006AN","EPOCH":"2025-10-21T20:26:47.223744","MEAN_MOTION":15.06398309,"ECCENTRICITY":0.0001167,"INCLINATION":53.0535,"RA_OF_ASC_NODE":169.888,"ARG_OF_PERICENTER":89.9391,"MEAN_ANOMALY":270.1732,"EPHEMERIS_TYPE":0,"CLASSIFICATION_TYPE":"U","NORAD_CAT_ID":45080,"ELEMENT_SET_NO":999,"REV_AT_EPOCH":31581,"BSTAR":0.00044603,"MEAN_MOTION_DOT":6.368e-5,"MEAN_MOTION_DDOT":0},{"OBJECT_NAME":"STARLINK-1151","OBJECT_ID":"2020-006AP","EPOCH":"2025-10-21T20:05:34.251936","MEAN_MOTION":15.06399575,"ECCENTRICITY":0.0001549,"INCLINATION":53.0538,"RA_OF_ASC_NODE":170.0274,"ARG_OF_PERICENTER":81.0409,"MEAN_ANOMALY":279.0755,"EPHEMERIS_TYPE":0,"CLASSIFICATION_TYPE":"U","NORAD_CAT_ID":45081,"ELEMENT_SET_NO":999,"REV_AT_EPOCH":31581,"BSTAR":0.00065032,"MEAN_MOTION_DOT":9.418e-5,"MEAN_MOTION_DDOT":0},{"OBJECT_NAME":"STARLINK-1190","OBJECT_ID":"2020-006AR","EPOCH":"2025-10-21T22:00:00.999072","MEAN_MOTION":15.84926218,"ECCENTRICITY":0.0004535,"INCLINATION":53.0416,"RA_OF_ASC_NODE":125.9397,"ARG_OF_PERICENTER":169.8669,"MEAN_ANOMALY":327.7974,"EPHEMERIS_TYPE":0,"CLASSIFICATION_TYPE":"U","NORAD_CAT_ID":45083,"ELEMENT_SET_NO":999,"REV_AT_EPOCH":593,"BSTAR":0.0010951,"MEAN_MOTION_DOT":0.00269178,"MEAN_MOTION_DDOT":0}]
