STARLINK-1107           
1 44972U 20001BL  25294.91667823  .00190280  00000+0  18830-2 0  9994
2 44972  53.0077 128.2522 0005610 192.9216 154.9173 15.64722390  5884
STARLINK-1132           
1 45044U 20006A   25293.99310965  .00000593  00000+0  58666-4 0  9999
2 45044  53.0535 173.7419 0000965  91.4595 268.6505 15.06396928315689
STARLINK-1131           
1 45047U 20006D   25294.10191734  .00007628  00000+0  53075-3 0  9991
2 45047  53.0543 193.7926 0001842  86.3412 273.7787 15.06379623315415
STARLINK-1134           
1 45048U 20006E   25294.79586414  .00037649  00000+0  14251-2 0  9998
2 45048  53.0405 169.8873 0011717 107.3100 252.9180 15.26538840315818
STARLINK-1156           
1 45054U 20006L   25294.73582534  .00038079  00000+0  25601-2 0  9997
2 45054  53.0532 190.4084 0001881  80.9375 279.1827 15.06420801315512
STARLINK-1159           
1 45057U 20006P   25294.91667823  .00023934  00000+0  14524-2 0  9991
2 45057  53.0538 189.5742 0001845  92.7872 100.0931 15.10421529  5443
STARLINK-1166           
1 45060U 20006S   25294.69529318  .00012755  00000+0  87380-3 0  9996
2 45060  53.0531 190.5908 0001323  92.7995 267.3145 15.06393160315513
STARLINK-1169           
1 45061U 20006T   25294.43726859  .00014132  00000+0  96601-3 0  9995
2 45061  53.0536 191.7504 0001223 105.8804 254.2320 15.06390005315478
STARLINK-1171           
1 45062U 20006U   25294.91667823  .01717943  00000+0  58915-1 0  9999
2 45062  53.0533 188.7953 0001090 102.8594 110.6307 15.26809965  5440
STARLINK-1133           
1 45064U 20006W   25294.83350579  .00009689  00000+0  66851-3 0  9999
2 45064  53.0536 169.9668 0001405 102.3816 257.7330 15.06397971315812
STARLINK-1167           
1 45071U 20006AD  25294.39488595  .00008814  00000+0  61002-3 0  9990
2 45071  53.0534 171.9387 0001192  72.8600 287.2519 15.06388255315748
STARLINK-1168           
1 45072U 20006AE  25294.79664481  .00005623  00000+0  39612-3 0  9992
2 45072  53.0535 170.1340 0001129  95.0234 265.0884 15.06397461315805
STARLINK-1172           
1 45074U 20006AG  25294.80770206  .00007225  00000+0  50351-3 0  9992
2 45074  53.0539 170.0852 0001165  97.9835 262.1287 15.06396310315803
STARLINK-1153           
1 45080U 20006AN  25294.85193546  .00006368  00000+0  44603-3 0  9990
2 45080  53.0535 169.8880 0001167  89.9391 270.1732 15.06398309315818
STARLINK-1151           
1 45081U 20006AP  25294.83720199  .00009418  00000+0  65032-3 0  9997
2 45081  53.0538 170.0274 0001549  81.0409 279.0755 15.06399575315819
STARLINK-1190           
1 45083U 20006AR  25294.91667823  .00269178  00000+0  10951-2 0  9992
2 45083  53.0416 125.9397 0004535 169.8669 327.7974 15.84926218  5931
